ISS OBJECT XW           
1 66910U 98067XW  26059.39516605  .00107154  00000+0  10238-2 0  9992
2 66910  51.6250 112.8301 0004695  36.0713 324.0599 15.65886281 13728
ISS OBJECT XX           
1 66911U 98067XX  26059.17644196  .00183930  00000+0  14258-2 0  9998
2 66911  51.6224 112.8607 0006724  29.6509 330.4869 15.70701974 13693
ISS OBJECT XY           
1 66912U 98067XY  26059.43700356  .00074749  00000+0  84275-3 0  9993
2 66912  51.6274 113.8728 0002597  40.6727 319.4460 15.61844218 13708
ISS OBJECT XZ           
1 67683U 98067XZ  26059.45188001  .00035022  00000+0  59654-3 0  9992
2 67683  51.6312 117.7224 0009606 155.1214 205.0240 15.50996439  3359
GXIBA-1                 
1 67684U 98067YA  26059.43705337  .00063733  00000+0  10102-2 0  9992
2 67684  51.6306 117.6242 0011076 146.1897 213.9801 15.52723154  3358
CORAL                   
1 67685U 98067YB  26059.38488540  .00039273  00000+0  66082-3 0  9992
2 67685  51.6317 118.0258 0011635 150.9862 209.1777 15.51261455  3347
ISS OBJECT YC           
1 67686U 98067YC  26059.51081316  .00047026  00000+0  77977-3 0  9998
2 67686  51.6314 117.3675 0007679 120.0712 240.1040 15.51632300  3366
LEOPARD                 
1 67687U 98067YD  26059.45044452  .00036895  00000+0  62541-3 0  9995
2 67687  51.6314 117.7139 0007680 123.4164 236.7560 15.51125040  3272
ISS OBJECT YE           
1 67688U 98067YE  26059.44767188  .00042995  00000+0  71844-3 0  9997
2 67688  51.6321 117.6961 0007618 120.4932 239.6810 15.51456739  3276
CREW DRAGON 12          
1 67796U 26031A   26059.86525056  .00009465  00000+0  18358-3 0  9997
2 67796  51.6324 115.9816 0008296 143.6602 216.4951 15.48367881554706
